105P/SingerBrewster,e,9.1679,192.3984,46.3447,3.472170,0.1523360,0.40900179,336.4193,08/21.0/2024,2000,g 11.5,6.0
# From MPEC 2023-UR6
106P/Schuster,e,19.5395,48.8632,353.7813,3.767486,0.1347804,0.59382016,147.9728,08/21.0/2024,2000,g 14.0,4.8
# From MPEC 2015-M77
107P/Wilson-Harrington,e,2.7986,266.7382,95.5123,2.625514,0.2316768,0.63125983,168.5415,08/21.0/2024,2000,g  9.0,4.0
# From MPEC 2022-P82
108P/Ciffreo,e,11.4356,50.2987,354.5139,3.742975,0.1361064,0.55598099,146.3886,08/21.0/2024,2000,g  8.0,12.0
# From  105, 420
109P/Swift-Tuttle,e,113.3347,139.5409,153.2398,26.21198,0.0073444,0.96266569,84.9513,08/21.0/2024,2000,g  4.0,6.0
# From MPEC 2023-KD6
110P/Hartley,e,11.7091,287.4863,167.5189,3.603846,0.1440638,0.31910221,149.3992,08/21.0/2024,2000,g  1.0,12.0
# From MPC 75718
111P/Helin-Roman-Crockett,e,4.2261,89.8111,1.2841,4.152481,0.1164777,0.10716874,135.0533,08/21.0/2024,2000,g  5.0,8.0
# From MPEC 2021-S45
112P/Urata-Niijima,e,24.2072,31.8290,21.5162,3.523246,0.1490355,0.59087392,246.4817,08/21.0/2024,2000,g 14.0,6.0
# From MPEC 2024-JU4
113P/Spitaler,e,5.2875,306.6438,115.6716,3.694922,0.1387702,0.41989919,112.5740,08/21.0/2024,2000,g 13.5,4.0
# From MPEC 2023-A50
114P/Wiseman-Skiff,e,18.3029,271.0256,172.7784,3.541139,0.1479073,0.55603936,248.3413,08/21.0/2024,2000,g 11.5,6.0
# From MPEC 2023-J29
115P/Maury,e,11.6771,176.0128,120.9458,4.271955,0.1116257,0.51752147,165.7995,08/21.0/2024,2000,g 10.5,6.0
# From MPEC 2024-JU4
116P/Wild,e,3.6038,20.9664,173.1880,3.487115,0.1513578,0.37038051,115.9982,08/21.0/2024,2000,g  2.5,10.0
# From MPEC 2024-Q20
117P/Helin-Roman-Alu,e,8.7033,58.8196,223.9622,4.101752,0.1186452,0.25553758,91.4962,08/21.0/2024,2000,g  2.5,8.0
# From MPEC 2024-MB8
118P/Shoemaker-Levy,e,10.0903,142.0746,314.9046,3.348522,0.1608512,0.45376825,102.2154,08/21.0/2024,2000,g 12.0,4.0
# From MPEC 2024-N80
119P/Parker-Hartley,e,7.3923,104.5517,322.2114,3.808204,0.1326245,0.38834337,98.0931,08/21.0/2024,2000,g  3.5,8.0
# From MPEC 2022-CN4
120P/Mueller,e,8.4850,358.7195,36.7408,3.968614,0.1246654,0.37456219,149.7465,08/21.0/2024,2000,g 12.0,4.0
# From MPEC 2024-JU4
121P/Shoemaker-Holt,e,20.1623,94.1090,11.8106,4.586850,0.1003303,0.18660040,41.9650,08/21.0/2024,2000,g  6.5,8.0
# From MPC 75718
122P/de Vico,e,86.0021,79.7372,12.9953,17.62981,0.0133147,0.96250957,140.6081,08/21.0/2024,2000,g  7.5,5.2
# From MPEC 2021-F20
123P/West-Hartley,e,15.2806,45.9003,104.0003,3.882074,0.1288571,0.44435864,261.7501,08/21.0/2024,2000,g 12.2,4.0
# From MPEC 2023-T65
124P/Mrkos,e,31.4275,0.0413,185.1539,3.374538,0.1589947,0.48656825,253.1968,08/21.0/2024,2000,g 13.5,2.8
# From MPEC 2024-Q20
125P/Spacewatch,e,9.9852,153.1485,87.1332,3.128786,0.1780903,0.51206436,29.6911,08/21.0/2024,2000,g 13.0,6.0
# From MPEC 2024-JU4
126P/IRAS,e,45.8712,357.8579,356.5741,5.631369,0.0737536,0.69628165,30.4429,08/21.0/2024,2000,g  6.0,8.0
# From MPEC 2024-AF0
127P/Holt-Olmstead,e,14.2993,13.6118,6.3252,3.453338,0.1535838,0.35913024,113.9048,08/21.0/2024,2000,g 11.0,6.0
# From MPC 89014
128P/Shoemaker-Holt,e,4.3704,214.3345,210.4039,4.484421,0.1037874,0.32242580,287.9243,08/21.0/2024,2000,g  8.5,4.0
# From MPEC 2024-L77
129P/Shoemaker-Levy,e,3.4420,184.8594,307.6438,4.292525,0.1108243,0.08573632,69.6331,08/21.0/2024,2000,g 11.0,4.0
# From MPEC 2024-Q20
130P/McNaught-Hughes,e,6.0636,70.1782,246.1367,3.381310,0.1585173,0.46085114,20.3059,08/21.0/2024,2000,g 10.0,6.0
# From MPC102101
131P/Mueller,e,7.3604,214.1751,179.1518,3.676349,0.1398231,0.34490421,284.0170,08/21.0/2024,2000,g 11.0,4.0
# From MPEC 2024-BE0
132P/Helin-Roman-Alu,e,5.3802,173.9915,216.4749,3.891172,0.1284054,0.56442568,129.9194,08/21.0/2024,2000,g 11.0,6.0
# From MPC 94676
133P/Elst-Pizarro,e,1.3898,160.1003,131.9094,3.163908,0.1751331,0.15588396,17.9879,08/21.0/2024,2000,g 15.4,2.0
# From MPC 89012
134P/Kowal-Vavrova,e,4.3344,202.0069,18.7303,6.269102,0.0627908,0.58524784,236.3883,08/21.0/2024,2000,g 11.5,4.0
# From MPEC 2024-C04
135P/Shoemaker-Levy,e,6.0639,213.0192,22.4087,3.800925,0.1330056,0.29395285,115.3070,08/21.0/2024,2000,g  7.0,8.0
# From MPEC 2024-Q20
136P/Mueller,e,9.4273,137.4216,225.2651,4.186732,0.1150512,0.29328082,344.4411,08/21.0/2024,2000,g 11.0,4.0
# From MPEC 2023-J29
137P/Shoemaker-Levy,e,4.8606,232.9239,141.2252,4.522759,0.1024705,0.57339052,212.6837,08/21.0/2024,2000,g 11.0,4.0
# From MPEC 2016-U66
138P/Shoemaker-Levy,e,10.0975,309.2798,95.6535,3.618359,0.1431979,0.53162977,276.9142,08/21.0/2024,2000,g 15.0,6.0
# From MPEC 2020-HN5
139P/Vaisala-Oterma,e,2.3375,242.1831,165.8913,4.515258,0.1027260,0.24837546,250.5734,08/21.0/2024,2000,g  9.5,4.0
# From MPEC 2015-E14
140P/Bowell-Skiff,e,3.7448,343.3703,172.2429,6.408366,0.0607552,0.69583074,201.8399,08/21.0/2024,2000,g 11.5,6.0
# From MPEC 2022-K19
141P/Machholz,e,13.9561,241.8090,153.6084,3.057417,0.1843623,0.73603494,247.5519,08/21.0/2024,2000,g 12.0,12.0
# From MPEC 2015-KD9
141P-A/Machholz,e,13.9422,153.5330,241.8974,3.057550,0.1843502,0.73603566,247.5041,08/21.0/2024,2000,g 12.0,12.0
# From MPC 24216
141P-B/Machholz,e,13.9861,153.6088,241.7866,3.055933,0.1844966,0.73579434,248.8868,08/21.0/2024,2000,g  9.0,4.0
# From MPC 37026
141P-D/Machholz,e,13.8341,153.2598,242.1452,3.066026,0.1835864,0.73698776,243.3371,08/21.0/2024,2000,g  9.0,4.0
# From MPEC 2015-R12
141P-E/Machholz,e,12.8152,246.1856,149.2667,3.012914,0.1884620,0.75023267,359.9529,09/19.0/1994,2000,g  9.0,4.0
# From MPEC 2015-R12
141P-F/Machholz,e,12.7898,246.1881,149.2374,3.010224,0.1887147,0.75000946,359.9630,09/19.0/1994,2000,g  9.0,4.0
# From MPEC 2015-R12
141P-G/Machholz,e,12.8259,246.3146,149.0784,3.005818,0.1891298,0.74964304,359.9802,09/19.0/1994,2000,g  9.0,4.0
# From MPC 95735
141P-H/Machholz,e,12.8431,246.0900,149.4500,3.008012,0.1889230,0.74682218,359.9270,08/24.0/2015,2000,g 18.5,4.0
# From MPEC 2022-SU8
141P-I/Machholz,e,13.9421,153.4875,241.9075,3.048026,0.1852150,0.73526175,248.7776,08/21.0/2024,2000,g 17.5,4.0
# From MPEC 2024-C04
142P/Ge-Wang,e,12.2481,175.9497,174.0769,5.002874,0.0880795,0.49638435,105.4182,08/21.0/2024,2000,g  8.5,6.0
# From MPEC 2023-XP6
143P/Kowal-Mrkos,e,5.7206,243.3141,315.2817,4.433676,0.1055743,0.42761149,269.1080,08/21.0/2024,2000,g 13.5,2.0
# From MPEC 2024-M41
144P/Kushida,e,3.9319,242.9245,216.3311,3.831827,0.1313999,0.63491269,27.3599,08/21.0/2024,2000,g  8.5,8.0
# From MPC108598
145P/Shoemaker-Levy,e,11.2769,26.8075,10.3372,4.132411,0.1173272,0.54259668,297.9552,08/21.0/2024,2000,g 13.5,4.0
# From MPEC 2024-Q20
146P/Shoemaker-LINEAR,e,23.1230,53.3750,317.0784,4.026668,0.1219791,0.64745998,1.8978,08/21.0/2024,2000,g 15.0,4.0
# From MPC 75720
147P/Kushida-Muramatsu,e,2.2914,92.1164,348.1012,4.009489,0.1227639,0.21219615,31.6700,08/21.0/2024,2000,g 14.0,4.0
# From MPEC 2024-JU4
148P/Anderson-LINEAR,e,3.6588,89.1957,8.0606,3.619911,0.1431058,0.55030848,114.3446,08/21.0/2024,2000,g 16.0,2.0
# From MPEC 2023-J29
149P/Mueller,e,34.2338,143.8155,30.3494,4.126011,0.1176003,0.32433286,260.2471,08/21.0/2024,2000,g  8.0,8.0
# From MPEC 2024-NE4
150P/LONEOS,e,18.5476,272.0570,246.1187,3.870904,0.1294153,0.54904785,20.9041,08/21.0/2024,2000,g 13.5,4.0
# From MPEC 2022-K19
151P/Helin,e,4.7268,143.1504,216.1469,5.764684,0.0712100,0.57306295,230.2557,08/21.0/2024,2000,g 10.0,6.0
# From MPEC 2024-PC5
152P/Helin-Lawrence,e,9.8788,91.7845,164.4226,4.484423,0.1037873,0.30766597,98.5426,08/21.0/2024,2000,g 11.5,4.0
# From MPC 46101
153P/Ikeya-Zhang,e,28.4418,93.7476,34.3110,50.38058,0.0027562,0.99004166,0.0000,03/07.6643/2002,2000,g  9.0,4.0
# From MPEC 2024-Q20
154P/Brewington,e,17.6338,343.0117,47.9449,4.798608,0.0937629,0.67638211,6.4451,08/21.0/2024,2000,g  2.5,12.0
# From MPEC 2022-YN2
155P/Shoemaker,e,6.4090,97.1577,14.5202,6.571108,0.0585122,0.72744037,101.7838,08/21.0/2024,2000,g 10.0,4.8
# From MPEC 2023-J29
156P/Russell-LINEAR,e,17.2673,35.3411,0.5129,3.462553,0.1529711,0.61507452,209.7560,08/21.0/2024,2000,g 15.5,2.0
# From MPEC 2024-D33
157P/Tritton,e,12.4219,287.5100,155.1409,3.547303,0.1475220,0.55684686,104.8877,08/21.0/2024,2000,g 10.0,4.0
# From MPEC 2022-VC5
157P-B/Tritton,e,12.4246,153.9056,287.1629,3.102482,0.1803600,0.49991931,128.5588,08/21.0/2024,2000,g 15.7,4.0
# From MPEC 2024-Q20
158P/Kowal-LINEAR,e,7.3385,125.8011,220.3473,5.600658,0.0743611,0.11775469,58.8917,08/21.0/2024,2000,g  9.0,4.0
# From MPEC 2024-DC6
159P/LONEOS,e,23.4890,54.9390,4.6761,5.853855,0.0695891,0.38277897,158.6231,08/21.0/2024,2000,g 10.0,4.0
# From MPEC 2022-K19
160P/LINEAR,e,15.6003,333.3658,12.7902,3.778632,0.1341845,0.52533896,231.3193,08/21.0/2024,2000,g 15.5,2.0
# From MPC 75721
161P/Hartley-IRAS,e,95.8196,1.5449,47.0683,7.713066,0.0460112,0.83570693,321.8527,08/21.0/2024,2000,g  8.5,6.0
# From MPEC 2024-LE0
162P/SidingSpring,e,27.5601,30.8856,357.2237,3.092092,0.1812698,0.58306867,244.9466,08/21.0/2024,2000,g 12.0,4.0
# From MPEC 2021-S45
163P/NEAT,e,12.7204,102.0710,349.5917,3.762418,0.1350528,0.45334070,248.5965,08/21.0/2024,2000,g 14.5,4.0
# From MPEC 2024-P23
164P/Christensen,e,16.2772,88.2691,325.9382,3.651817,0.1412344,0.54123545,320.5410,08/21.0/2024,2000,g 11.0,4.0
# From MPC 75721
165P/LINEAR,e,15.9021,0.7567,125.7941,17.81633,0.0131062,0.61853857,115.9065,08/21.0/2024,2000,g 11.5,2.0
# From MPC 75722
166P/NEAT,e,15.3800,64.4292,321.7807,13.83024,0.0191628,0.38386327,155.3649,08/21.0/2024,2000,g  5.5,4.0
# From MPEC 2023-J29
167P/CINEOS,e,19.0824,295.8132,344.6394,16.25791,0.0150351,0.26809668,128.3190,08/21.0/2024,2000,g  9.5,2.0
# From MPEC 2023-J29
168P/Hergenrother,e,21.6001,355.4085,15.0875,3.586820,0.1450907,0.62144627,266.6879,08/21.0/2024,2000,g 15.5,4.0
# From MPEC 2023-J95
169P/NEAT,e,11.2916,176.0829,218.0954,2.603462,0.2346266,0.76822360,181.4158,08/21.0/2024,2000,g 16.0,2.0
# From MPEC 2024-L77
170P/Christensen,e,10.1190,142.6704,225.0012,4.201439,0.1144477,0.30536079,56.3190,08/21.0/2024,2000,g 12.0,4.0
# From MPC102102
171P/Spahr,e,21.9504,101.7002,347.0754,3.552237,0.1472147,0.50265183,301.1062,08/21.0/2024,2000,g 13.5,4.0
# From MPEC 2024-L77
